<?xml version="1.0" encoding="UTF-8"?>
<ndm xmlns:xsi="http://www.w3.org/2001/XMLSchema-instance" xsi:noNamespaceSchemaLocation="https://sanaregistry.org/r/ndmxml_unqualified/ndmxml-2.0.0-master-2.0.xsd">
<omm id="CCSDS_OMM_VERS" version="2.0">
<header><CREATION_DATE/><ORIGINATOR/></header><body><segment><metadata><OBJECT_NAME>ORBCOMM FM33</OBJECT_NAME><OBJECT_ID>1999-065D</OBJECT_ID><CENTER_NAME>EARTH</CENTER_NAME><REF_FRAME>TEME</REF_FRAME><TIME_SYSTEM>UTC</TIME_SYSTEM><MEAN_ELEMENT_THEORY>SGP4</MEAN_ELEMENT_THEORY></metadata><data><meanElements><EPOCH>2025-03-16T11:11:07.715328</EPOCH><MEAN_MOTION>14.39635065</MEAN_MOTION><ECCENTRICITY>.0010554</ECCENTRICITY><INCLINATION>45.0273</INCLINATION><RA_OF_ASC_NODE>79.6933</RA_OF_ASC_NODE><ARG_OF_PERICENTER>309.8059</ARG_OF_PERICENTER><MEAN_ANOMALY>50.1860</MEAN_ANOMALY></meanElements><tleParameters><EPHEMERIS_TYPE>0</EPHEMERIS_TYPE><CLASSIFICATION_TYPE>U</CLASSIFICATION_TYPE><NORAD_CAT_ID>25983</NORAD_CAT_ID><ELEMENT_SET_NO>999</ELEMENT_SET_NO><REV_AT_EPOCH>32270</REV_AT_EPOCH><BSTAR>.11144E-2</BSTAR><MEAN_MOTION_DOT>.3377E-4</MEAN_MOTION_DOT><MEAN_MOTION_DDOT>0</MEAN_MOTION_DDOT></tleParameters></data></segment></body></omm>
<omm id="CCSDS_OMM_VERS" version="2.0">
<header><CREATION_DATE/><ORIGINATOR/></header><body><segment><metadata><OBJECT_NAME>ORBCOMM FM36</OBJECT_NAME><OBJECT_ID>1999-065E</OBJECT_ID><CENTER_NAME>EARTH</CENTER_NAME><REF_FRAME>TEME</REF_FRAME><TIME_SYSTEM>UTC</TIME_SYSTEM><MEAN_ELEMENT_THEORY>SGP4</MEAN_ELEMENT_THEORY></metadata><data><meanElements><EPOCH>2025-03-16T12:24:46.425600</EPOCH><MEAN_MOTION>14.37733900</MEAN_MOTION><ECCENTRICITY>.0005019</ECCENTRICITY><INCLINATION>45.0381</INCLINATION><RA_OF_ASC_NODE>169.9562</RA_OF_ASC_NODE><ARG_OF_PERICENTER>211.8663</ARG_OF_PERICENTER><MEAN_ANOMALY>148.1883</MEAN_ANOMALY></meanElements><tleParameters><EPHEMERIS_TYPE>0</EPHEMERIS_TYPE><CLASSIFICATION_TYPE>U</CLASSIFICATION_TYPE><NORAD_CAT_ID>25984</NORAD_CAT_ID><ELEMENT_SET_NO>999</ELEMENT_SET_NO><REV_AT_EPOCH>32108</REV_AT_EPOCH><BSTAR>.11171E-2</BSTAR><MEAN_MOTION_DOT>.3251E-4</MEAN_MOTION_DOT><MEAN_MOTION_DDOT>0</MEAN_MOTION_DDOT></tleParameters></data></segment></body></omm>
<omm id="CCSDS_OMM_VERS" version="2.0">
<header><CREATION_DATE/><ORIGINATOR/></header><body><segment><metadata><OBJECT_NAME>ORBCOMM FM35</OBJECT_NAME><OBJECT_ID>1999-065F</OBJECT_ID><CENTER_NAME>EARTH</CENTER_NAME><REF_FRAME>TEME</REF_FRAME><TIME_SYSTEM>UTC</TIME_SYSTEM><MEAN_ELEMENT_THEORY>SGP4</MEAN_ELEMENT_THEORY></metadata><data><meanElements><EPOCH>2025-03-16T13:41:54.537504</EPOCH><MEAN_MOTION>14.36758913</MEAN_MOTION><ECCENTRICITY>.0004845</ECCENTRICITY><INCLINATION>45.0384</INCLINATION><RA_OF_ASC_NODE>174.0156</RA_OF_ASC_NODE><ARG_OF_PERICENTER>270.9378</ARG_OF_PERICENTER><MEAN_ANOMALY>89.0915</MEAN_ANOMALY></meanElements><tleParameters><EPHEMERIS_TYPE>0</EPHEMERIS_TYPE><CLASSIFICATION_TYPE>U</CLASSIFICATION_TYPE><NORAD_CAT_ID>25985</NORAD_CAT_ID><ELEMENT_SET_NO>999</ELEMENT_SET_NO><REV_AT_EPOCH>32146</REV_AT_EPOCH><BSTAR>.98365E-3</BSTAR><MEAN_MOTION_DOT>.2788E-4</MEAN_MOTION_DOT><MEAN_MOTION_DDOT>0</MEAN_MOTION_DDOT></tleParameters></data></segment></body></omm>
<omm id="CCSDS_OMM_VERS" version="2.0">
<header><CREATION_DATE/><ORIGINATOR/></header><body><segment><metadata><OBJECT_NAME>ORBCOMM FM34</OBJECT_NAME><OBJECT_ID>1999-065G</OBJECT_ID><CENTER_NAME>EARTH</CENTER_NAME><REF_FRAME>TEME</REF_FRAME><TIME_SYSTEM>UTC</TIME_SYSTEM><MEAN_ELEMENT_THEORY>SGP4</MEAN_ELEMENT_THEORY></metadata><data><meanElements><EPOCH>2025-03-16T14:36:13.959360</EPOCH><MEAN_MOTION>14.36804174</MEAN_MOTION><ECCENTRICITY>.000577</ECCENTRICITY><INCLINATION>45.0379</INCLINATION><RA_OF_ASC_NODE>174.3339</RA_OF_ASC_NODE><ARG_OF_PERICENTER>236.5411</ARG_OF_PERICENTER><MEAN_ANOMALY>123.4886</MEAN_ANOMALY></meanElements><tleParameters><EPHEMERIS_TYPE>0</EPHEMERIS_TYPE><CLASSIFICATION_TYPE>U</CLASSIFICATION_TYPE><NORAD_CAT_ID>25986</NORAD_CAT_ID><ELEMENT_SET_NO>999</ELEMENT_SET_NO><REV_AT_EPOCH>32158</REV_AT_EPOCH><BSTAR>.94968E-3</BSTAR><MEAN_MOTION_DOT>.2689E-4</MEAN_MOTION_DOT><MEAN_MOTION_DDOT>0</MEAN_MOTION_DDOT></tleParameters></data></segment></body></omm>
<omm id="CCSDS_OMM_VERS" version="2.0">
<header><CREATION_DATE/><ORIGINATOR/></header><body><segment><metadata><OBJECT_NAME>ORBCOMM FM38</OBJECT_NAME><OBJECT_ID>2008-031A</OBJECT_ID><CENTER_NAME>EARTH</CENTER_NAME><REF_FRAME>TEME</REF_FRAME><TIME_SYSTEM>UTC</TIME_SYSTEM><MEAN_ELEMENT_THEORY>SGP4</MEAN_ELEMENT_THEORY></metadata><data><meanElements><EPOCH>2025-03-16T14:02:19.667040</EPOCH><MEAN_MOTION>14.80677614</MEAN_MOTION><ECCENTRICITY>.0005688</ECCENTRICITY><INCLINATION>48.4407</INCLINATION><RA_OF_ASC_NODE>36.3913</RA_OF_ASC_NODE><ARG_OF_PERICENTER>356.5336</ARG_OF_PERICENTER><MEAN_ANOMALY>3.5539</MEAN_ANOMALY></meanElements><tleParameters><EPHEMERIS_TYPE>0</EPHEMERIS_TYPE><CLASSIFICATION_TYPE>U</CLASSIFICATION_TYPE><NORAD_CAT_ID>33060</NORAD_CAT_ID><ELEMENT_SET_NO>999</ELEMENT_SET_NO><REV_AT_EPOCH>90102</REV_AT_EPOCH><BSTAR>.75683E-3</BSTAR><MEAN_MOTION_DOT>.5674E-4</MEAN_MOTION_DOT><MEAN_MOTION_DDOT>0</MEAN_MOTION_DDOT></tleParameters></data></segment></body></omm>
<omm id="CCSDS_OMM_VERS" version="2.0">
<header><CREATION_DATE/><ORIGINATOR/></header><body><segment><metadata><OBJECT_NAME>ORBCOMM FM41</OBJECT_NAME><OBJECT_ID>2008-031B</OBJECT_ID><CENTER_NAME>EARTH</CENTER_NAME><REF_FRAME>TEME</REF_FRAME><TIME_SYSTEM>UTC</TIME_SYSTEM><MEAN_ELEMENT_THEORY>SGP4</MEAN_ELEMENT_THEORY></metadata><data><meanElements><EPOCH>2025-03-16T09:14:46.186656</EPOCH><MEAN_MOTION>14.80291232</MEAN_MOTION><ECCENTRICITY>.0005018</ECCENTRICITY><INCLINATION>48.4438</INCLINATION><RA_OF_ASC_NODE>44.8084</RA_OF_ASC_NODE><ARG_OF_PERICENTER>340.7964</ARG_OF_PERICENTER><MEAN_ANOMALY>151.9654</MEAN_ANOMALY></meanElements><tleParameters><EPHEMERIS_TYPE>0</EPHEMERIS_TYPE><CLASSIFICATION_TYPE>U</CLASSIFICATION_TYPE><NORAD_CAT_ID>33061</NORAD_CAT_ID><ELEMENT_SET_NO>999</ELEMENT_SET_NO><REV_AT_EPOCH>90048</REV_AT_EPOCH><BSTAR>.73404E-3</BSTAR><MEAN_MOTION_DOT>.5444E-4</MEAN_MOTION_DOT><MEAN_MOTION_DDOT>0</MEAN_MOTION_DDOT></tleParameters></data></segment></body></omm>
<omm id="CCSDS_OMM_VERS" version="2.0">
<header><CREATION_DATE/><ORIGINATOR/></header><body><segment><metadata><OBJECT_NAME>ORBCOMM FM29</OBJECT_NAME><OBJECT_ID>2008-031C</OBJECT_ID><CENTER_NAME>EARTH</CENTER_NAME><REF_FRAME>TEME</REF_FRAME><TIME_SYSTEM>UTC</TIME_SYSTEM><MEAN_ELEMENT_THEORY>SGP4</MEAN_ELEMENT_THEORY></metadata><data><meanElements><EPOCH>2025-03-16T02:19:26.036832</EPOCH><MEAN_MOTION>14.80347799</MEAN_MOTION><ECCENTRICITY>.0006843</ECCENTRICITY><INCLINATION>48.4386</INCLINATION><RA_OF_ASC_NODE>54.0939</RA_OF_ASC_NODE><ARG_OF_PERICENTER>339.3361</ARG_OF_PERICENTER><MEAN_ANOMALY>109.2758</MEAN_ANOMALY></meanElements><tleParameters><EPHEMERIS_TYPE>0</EPHEMERIS_TYPE><CLASSIFICATION_TYPE>U</CLASSIFICATION_TYPE><NORAD_CAT_ID>33062</NORAD_CAT_ID><ELEMENT_SET_NO>999</ELEMENT_SET_NO><REV_AT_EPOCH>90035</REV_AT_EPOCH><BSTAR>.7774E-3</BSTAR><MEAN_MOTION_DOT>.5788E-4</MEAN_MOTION_DOT><MEAN_MOTION_DDOT>0</MEAN_MOTION_DDOT></tleParameters></data></segment></body></omm>
<omm id="CCSDS_OMM_VERS" version="2.0">
<header><CREATION_DATE/><ORIGINATOR/></header><body><segment><metadata><OBJECT_NAME>ORBCOMM FM39</OBJECT_NAME><OBJECT_ID>2008-031D</OBJECT_ID><CENTER_NAME>EARTH</CENTER_NAME><REF_FRAME>TEME</REF_FRAME><TIME_SYSTEM>UTC</TIME_SYSTEM><MEAN_ELEMENT_THEORY>SGP4</MEAN_ELEMENT_THEORY></metadata><data><meanElements><EPOCH>2025-03-16T10:15:00.254592</EPOCH><MEAN_MOTION>14.78983807</MEAN_MOTION><ECCENTRICITY>.000788</ECCENTRICITY><INCLINATION>48.4390</INCLINATION><RA_OF_ASC_NODE>75.7990</RA_OF_ASC_NODE><ARG_OF_PERICENTER>315.3639</ARG_OF_PERICENTER><MEAN_ANOMALY>44.6641</MEAN_ANOMALY></meanElements><tleParameters><EPHEMERIS_TYPE>0</EPHEMERIS_TYPE><CLASSIFICATION_TYPE>U</CLASSIFICATION_TYPE><NORAD_CAT_ID>33063</NORAD_CAT_ID><ELEMENT_SET_NO>999</ELEMENT_SET_NO><REV_AT_EPOCH>90006</REV_AT_EPOCH><BSTAR>.60993E-3</BSTAR><MEAN_MOTION_DOT>.4346E-4</MEAN_MOTION_DOT><MEAN_MOTION_DDOT>0</MEAN_MOTION_DDOT></tleParameters></data></segment></body></omm>

</ndm>
