ORBCOMM FM33            
1 25983U 99065D   25075.46606152  .00003377  00000+0  11144-2 0  9997
2 25983  45.0273  79.6933 0010554 309.8059  50.1860 14.39635065322702
ORBCOMM FM36            
1 25984U 99065E   25075.51720400  .00003251  00000+0  11171-2 0  9998
2 25984  45.0381 169.9562 0005019 211.8663 148.1883 14.37733900321085
ORBCOMM FM35            
1 25985U 99065F   25075.57077011  .00002788  00000+0  98365-3 0  9993
2 25985  45.0384 174.0156 0004845 270.9378  89.0915 14.36758913321461
ORBCOMM FM34            
1 25986U 99065G   25075.60849490  .00002689  00000+0  94968-3 0  9991
2 25986  45.0379 174.3339 0005770 236.5411 123.4886 14.36804174321580
ORBCOMM FM38            
1 33060U 08031A   25075.58494985  .00005674  00000+0  75683-3 0  9998
2 33060  48.4407  36.3913 0005688 356.5336   3.5539 14.80677614901025
ORBCOMM FM41            
1 33061U 08031B   25075.38525679  .00005444  00000+0  73404-3 0  9996
2 33061  48.4438  44.8084 0005018 340.7964 151.9654 14.80291232900485
ORBCOMM FM29            
1 33062U 08031C   25075.09682913  .00005788  00000+0  77740-3 0  9998
2 33062  48.4386  54.0939 0006843 339.3361 109.2758 14.80347799900359
ORBCOMM FM39            
1 33063U 08031D   25075.42708628  .00004346  00000+0  60993-3 0  9999
2 33063  48.4390  75.7990 0007880 315.3639  44.6641 14.78983807900060
